ONEWEB-0424             
1 50497U 21132AE  23325.83642705  .00000013  00000+0 -71819-6 0  9990
2 50497  87.9217 162.1261 0001634 103.9961 256.1353 13.18687364 97977
ONEWEB-0426             
1 50498U 21132AF  23325.57086512  .00000126  00000+0  28705-3 0  9997
2 50498  87.9215 162.2041 0002245  77.8563 282.2820 13.18684916 97888
ONEWEB-0427             
1 50499U 21132AG  23325.60667836  .00000050  00000+0  94604-4 0  9994
2 50499  87.9214 162.1715 0001830  86.9308 273.2033 13.18688191 97911
ONEWEB-0429             
1 50500U 21132AH  23325.59406128  .00000429  00000+0  10542-2 0  9997
2 50500  87.9201 162.1755 0001441  83.3114 276.8182 13.18686605 97886
ONEWEB-0430             
1 50501U 21132AJ  23325.58351707  .00000143  00000+0  33126-3 0  9996
2 50501  87.9217 162.1809 0001793  89.2708 270.8629 13.18684033 97926
ONEWEB-0432             
1 50502U 21132AK  23325.61512362  .00000025  00000+0  31208-4 0  9996
2 50502  87.9216 162.1702 0001484  86.9195 273.2107 13.18686460 97888
ONEWEB-0440             
1 50503U 21132AL  23325.60246516  .00000055  00000+0  10664-3 0  9996
2 50503  87.9143 162.1670 0001553  58.3651 301.7632 13.18687722 97870
ONEWEB-0450             
1 50504U 21132AM  23325.59616858  .00000040  00000+0  68781-4 0  9993
2 50504  87.9187 162.1965 0001153  85.4273 274.6991 13.18687178 97908
